GLOBALSTAR M063 [+]     
1 26081U 00008A   23265.55845256 -.00000061  00000+0  32291-3 0  9990
2 26081  51.9984 340.2856 0004785 175.5056 293.9575 11.86144492 82387
GLOBALSTAR M062 [-]     
1 26082U 00008B   23265.16100715  .00000001  00000+0  71091-3 0  9996
2 26082  51.9841 160.1836 0006272 194.0569 331.4864 12.43415128417747
GLOBALSTAR M060 [-]     
1 26083U 00008C   23265.52142007 -.00000201  00000+0 -10931-2 0  9996
2 26083  52.0045  29.4855 0002584 279.5963 203.7288 12.17613927 75179
GLOBALSTAR M064 [-]     
1 26084U 00008D   23265.53125224 -.00000093  00000+0 -14614-3 0  9992
2 26084  52.0020  86.6552 0000702 304.2067  55.8699 11.88509718 91756
GLOBALSTAR M065 [+]     
1 31571U 07020A   23265.45408325 -.00000098  00000+0  31432-4 0  9999
2 31571  51.9923 355.0509 0009867 348.9435  91.9915 12.61952122753393
GLOBALSTAR M069 [+]     
1 31573U 07020C   23265.52796483 -.00000050  00000+0  29789-3 0  9993
2 31573  51.9961 311.0080 0000526 156.6944 350.8661 12.62281275754521
GLOBALSTAR M072 [+]     
1 31574U 07020D   23265.59149990 -.00000097  00000+0  36849-4 0  9993
2 31574  52.0097  46.5063 0001103  88.4742   6.7615 12.62265775752807
GLOBALSTAR M071 [P]     
1 31576U 07020F   23265.46585916 -.00000060  00000+0  24274-3 0  9991
2 31576  52.0082 316.1534 0001013 157.4935 306.6936 12.62268531415709
